LEMUR-1                 
1 40044U 14033AL  26160.34417640  .00001985  00000+0  23275-3 0  9991
2 40044  97.7869 310.3247 0049757 103.6563 257.0199 14.85214979644306
LEMUR-2-GREENBERG       
1 42837U 17042N   26160.44108784  .00015116  00000+0  50476-3 0  9997
2 42837  97.3822 341.1035 0009248  40.8055 319.3877 15.31090051487203
LEMUR-2-ANDIS           
1 42838U 17042P   26160.48795441  .00019657  00000+0  58833-3 0  9993
2 42838  97.3683 341.3084 0008827  39.6979 320.4909 15.34538816487273
LEMUR-2-MONSON          
1 42839U 17042Q   26160.49863306  .00012897  00000+0  47698-3 0  9997
2 42839  97.4082 341.1447 0006937  32.9351 327.2320 15.27809185486991
LEMUR-2-FURIAUS         
1 42840U 17042R   26160.36398962  .00016224  00000+0  56019-3 0  9991
2 42840  97.3773 339.0000 0008522  93.0891 267.1325 15.29994357487018
LEMUR-2-PETERG          
1 42841U 17042S   26160.46730441  .00020634  00000+0  63682-3 0  9999
2 42841  97.3993 345.4879 0003872  25.8294 334.3141 15.33586311487252
LEMUR-2-DEMBITZ         
1 42842U 17042T   26160.44953551  .00014370  00000+0  49576-3 0  9993
2 42842  97.3827 342.1025 0007375  53.8252 306.3670 15.30058426487167
LEMUR-2-ZACHARY         
1 42845U 17042W   26160.50728247  .00041972  00000+0  75821-3 0  9995
2 42845  97.3612 351.9846 0003452  60.1087 300.0507 15.49598586488011
LEMUR-2-AMANDA-SVANTE   
1 48269U 21034B   26160.46493074  .00028035  00000+0  85707-3 0  9998
2 48269  97.5758 238.5499 0001368 235.4809 124.6304 15.33832913279872
LEMUR-2-SPECIAL-K       
1 48273U 21034F   26160.21253646  .00123928  00000+0  13901-2 0  9998
2 48273  97.5650 246.5065 0003335 231.9429 128.1528 15.62244163280449
LEMUR-2-EMBRIONOVIS     
1 56970U 23084AQ  26160.39158897  .00011731  00000+0  32233-3 0  9997
2 56970  97.6279 304.2939 0008268 350.6984   9.4105 15.37354579166481
LEMUR-2-DEVERILL-M-T    
1 57391U 23100F   26160.37065289  .00023789  00000+0  60992-3 0  9993
2 57391  99.4480 196.8741 0007072  74.5654 285.6365 15.39367213160040
LEMUR-2-BASS            
1 58259U 23174D   26160.49283119  .00016040  00000+0  36733-3 0  9993
2 58259  97.3844 245.0993 0007157 187.3899 172.7244 15.42838879144172
LEMUR-2-JK0903EM1407    
1 58336U 23174CJ  26160.21062916  .00024167  00000+0  41303-3 0  9997
2 58336  97.3912 250.4606 0005943 141.7829 218.3846 15.51269157144490
LEMUR-2-MJR092620       
1 58340U 23174CN  26160.51494106  .00017995  00000+0  38821-3 0  9997
2 58340  97.3967 250.4047 0007068 140.0567 220.1202 15.44592203144462
LEMUR-2-NIMBUS2000      
1 58899U 24022A   26160.47584319  .00015864  00000+0  40204-3 0  9991
2 58899  97.4122  10.3821 0010034 139.5661 220.6333 15.39748894131080
LEMUR-2-VALHALLA        
1 58900U 24022B   26160.08046430  .00013657  00000+0  35012-3 0  9997
2 58900  97.4119   9.9767 0010584 137.0301 223.1774 15.39424233131025
LEMUR-2-OBA-NI-JESU     
1 58902U 24022D   26160.13120620  .01248404  10416-2  12360-2 0  9995
2 58902  97.3705  24.7846 0004707 203.5423 156.5647 16.11545402132037
LEMUR-2-CAEL            
1 58903U 24022E   26160.48677579  .00015817  00000+0  38835-3 0  9994
2 58903  97.4106  11.3102 0009165 120.0912 240.1244 15.40722484131153
LEMUR-2-JOHNNYTRUONG    
1 59146U 24043BA  26160.38942506  .00035674  00000+0  44362-3 0  9996
2 59146  97.5370 311.6139 0004562 200.0811 160.0266 15.59883051126826
LEMUR-2-TOMATOKECHUP    
1 60471U 24149D   26160.48497374  .00009855  00000+0  28458-3 0  9995
2 60471  97.3794 242.5131 0000673 196.4932 163.6290 15.35869919100988
LEMUR-2-STELLA          
1 60533U 24149BT  26160.46979020  .00009531  00000+0  56420-3 0  9996
2 60533  97.6731 242.8921 0001807 100.4072 259.7362 15.11640615 99338
LEMUR-2-MARHISYAM       
1 60536U 24149BW  26160.18245547  .00010139  00000+0  60895-3 0  9995
2 60536  97.6875 243.0444 0003045 134.3320 225.8160 15.11094587 99275
LEMUR-2-AHMED-ASRAR     
1 60576U 24149DN  26160.22423883  .00010250  00000+0  59161-3 0  9993
2 60576  97.7000 245.1488 0002620  62.7817 297.3680 15.12533841 99367
LEMUR-2-LLOYD           
1 60577U 24149DP  26160.21845874  .00008695  00000+0  55239-3 0  9993
2 60577  97.6746 241.3443 0004569 158.0530 202.0895 15.09086279 99194
LEMUR-2-SQUIRRELCOMM    
1 60578U 24149DQ  26160.22177735  .00005305  00000+0  35767-3 0  9998
2 60578  97.6716 241.1591 0006956  83.9423 276.2596 15.07063859 99203
LEMUR-2-SIERRINI        
1 60579U 24149DR  26160.46923147  .00009243  00000+0  56027-3 0  9998
2 60579  97.6835 243.0285 0005214 188.0717 172.0429 15.10781972 99290
LEMUR-2-WILSON          
1 62694U 25009CP  26160.46560831  .00001520  00000+0  14370-3 0  9996
2 62694  97.7024 239.0660 0004490  73.3175 286.8538 14.95132548 76204
LEMUR-2-STAR-FOX        
1 62696U 25009CR  26160.50042488  .00007620  00000+0  57977-3 0  9993
2 62696  97.6946 242.1650 0003037 132.0955 228.0528 15.02389324 76401
LEMUR-2-ARIANNA         
1 62699U 25009CU  26160.49866727  .00007585  00000+0  57740-3 0  9992
2 62699  97.6883 241.9436 0003376 138.5528 221.5953 15.02369792 76403
